{"type": "FeatureCollection", "features": [{"type": "Feature", "properties": {"norad_id": 28054, "name": "DMSP 5D-3 F16 (USA 172)", "group": "weather", "lat": 22.385094609770505, "lon": -170.08326658674534, "alt_km": 848.1917443631091, "timestamp": "2025-12-14T16:47:40.325758+00:00", "meta": {"OBJECT_NAME": "DMSP 5D-3 F16 (USA 172)", "OBJECT_ID": "2003-048A", "EPOCH": "2025-12-14T00:02:05.246304", "MEAN_MOTION": 14.14424691, "ECCENTRICITY": 0.00064579, "INCLINATION": 99.0046, "RA_OF_ASC_NODE": 5.4684, "ARG_OF_PERICENTER": 316.9205, "MEAN_ANOMALY": 246.4891, "EPHEMERIS_TYPE": 0, "CLASSIFICATION_TYPE": "U", "NORAD_CAT_ID": 28054, "ELEMENT_SET_NO": 999, "REV_AT_EPOCH": 14330, "BSTAR": 0.00012378994, "MEAN_MOTION_DOT": 1.91e-06, "MEAN_MOTION_DDOT": 0}, "tle": {"line1": "1 28054U 03048A   25348.00144961  .00000191  00000+0  12379-3 0  9996", "line2": "2 28054  99.0046   5.4684 0006457 316.9205 246.4891 14.14424691143305"}}, "geometry": {"type": "Point", "coordinates": [-170.08326658674534, 22.385094609770505]}}, {"type": "Feature", "properties": {"norad_id": 28912, "name": "METEOSAT-9 (MSG-2)", "group": "weather", "lat": -5.067576942379174, "lon": 21.597226045360504, "alt_km": 35795.694141414715, "timestamp": "2025-12-14T16:47:40.325809+00:00", "meta": {"OBJECT_NAME": "METEOSAT-9 (MSG-2)", "OBJECT_ID": "2005-049B", "EPOCH": "2025-12-13T20:30:47.672352", "MEAN_MOTION": 1.00277243, "ECCENTRICITY": 0.00035181, "INCLINATION": 8.9422, "RA_OF_ASC_NODE": 55.9671, "ARG_OF_PERICENTER": 190.0125, "MEAN_ANOMALY": 190.1961, "EPHEMERIS_TYPE": 0, "CLASSIFICATION_TYPE": "U", "NORAD_CAT_ID": 28912, "ELEMENT_SET_NO": 999, "REV_AT_EPOCH": 514, "BSTAR": 0, "MEAN_MOTION_DOT": 1.35e-06, "MEAN_MOTION_DDOT": 0}, "tle": {"line1": "1 28912U 05049B   25347.85471843  .00000135  00000+0  00000+0 0  9998", "line2": "2 28912   8.9422  55.9671 0003518 190.0125 190.1961  1.00277243  5140"}}, "geometry": {"type": "Point", "coordinates": [21.597226045360504, -5.067576942379174]}}, {"type": "Feature", "properties": {"norad_id": 29522, "name": "DMSP 5D-3 F17 (USA 191)", "group": "weather", "lat": 75.98575189260214, "lon": -147.90629656329497, "alt_km": 838.566894992834, "timestamp": "2025-12-14T16:47:40.325827+00:00", "meta": {"OBJECT_NAME": "DMSP 5D-3 F17 (USA 191)", "OBJECT_ID": "2006-050A", "EPOCH": "2025-12-13T23:20:48.061536", "MEAN_MOTION": 14.14920248, "ECCENTRICITY": 0.00094618, "INCLINATION": 98.7393, "RA_OF_ASC_NODE": 353.3362, "ARG_OF_PERICENTER": 221.0522, "MEAN_ANOMALY": 138.9941, "EPHEMERIS_TYPE": 0, "CLASSIFICATION_TYPE": "U", "NORAD_CAT_ID": 29522, "ELEMENT_SET_NO": 999, "REV_AT_EPOCH": 98622, "BSTAR": 0.00014983623, "MEAN_MOTION_DOT": 2.46e-06, "MEAN_MOTION_DDOT": 0}, "tle": {"line1": "1 29522U 06050A   25347.97277849  .00000246  00000+0  14984-3 0  9995", "line2": "2 29522  98.7393 353.3362 0009461 221.0522 138.9941 14.14920248986227"}}, "geometry": {"type": "Point", "coordinates": [-147.90629656329497, 75.98575189260214]}}, {"type": "Feature", "properties": {"norad_id": 32958, "name": "FENGYUN 3A", "group": "weather", "lat": -27.133862874996918, "lon": 103.70045525562911, "alt_km": 833.3828678179789, "timestamp": "2025-12-14T16:47:40.325842+00:00", "meta": {"OBJECT_NAME": "FENGYUN 3A", "OBJECT_ID": "2008-026A", "EPOCH": "2025-12-13T19:31:11.426016", "MEAN_MOTION": 14.19515118, "ECCENTRICITY": 0.00078732, "INCLINATION": 98.6698, "RA_OF_ASC_NODE": 287.3175, "ARG_OF_PERICENTER": 307.0289, "MEAN_ANOMALY": 53.0167, "EPHEMERIS_TYPE": 0, "CLASSIFICATION_TYPE": "U", "NORAD_CAT_ID": 32958, "ELEMENT_SET_NO": 999, "REV_AT_EPOCH": 90910, "BSTAR": 0.00010749827, "MEAN_MOTION_DOT": 1.83e-06, "MEAN_MOTION_DDOT": 0}, "tle": {"line1": "1 32958U 08026A   25347.81332669  .00000183  00000+0  10750-3 0  9999", "line2": "2 32958  98.6698 287.3175 0007873 307.0289  53.0167 14.19515118909109"}}, "geometry": {"type": "Point", "coordinates": [103.70045525562911, -27.133862874996918]}}, {"type": "Feature", "properties": {"norad_id": 35491, "name": "GOES 14", "group": "weather", "lat": 0.769471333573952, "lon": -135.4663074135791, "alt_km": 35832.53880529485, "timestamp": "2025-12-14T16:47:40.325856+00:00", "meta": {"OBJECT_NAME": "GOES 14", "OBJECT_ID": "2009-033A", "EPOCH": "2025-12-13T16:20:56.601888", "MEAN_MOTION": 1.00096218, "ECCENTRICITY": 7.106e-05, "INCLINATION": 1.2052, "RA_OF_ASC_NODE": 85.3881, "ARG_OF_PERICENTER": 164.6316, "MEAN_ANOMALY": 327.4765, "EPHEMERIS_TYPE": 0, "CLASSIFICATION_TYPE": "U", "NORAD_CAT_ID": 35491, "ELEMENT_SET_NO": 999, "REV_AT_EPOCH": 473, "BSTAR": 0, "MEAN_MOTION_DOT": -1.3e-07, "MEAN_MOTION_DDOT": 0}, "tle": {"line1": "1 35491U 09033A   25347.68121067 -.00000013  00000+0  00000+0 0  9992", "line2": "2 35491   1.2052  85.3881 0000710 164.6316 327.4765  1.00096218  4737"}}, "geometry": {"type": "Point", "coordinates": [-135.4663074135791, 0.769471333573952]}}, {"type": "Feature", "properties": {"norad_id": 35951, "name": "DMSP 5D-3 F18 (USA 210)", "group": "weather", "lat": -32.36706180138688, "lon": -29.220438668927997, "alt_km": 849.1368360522865, "timestamp": "2025-12-14T16:47:40.325869+00:00", "meta": {"OBJECT_NAME": "DMSP 5D-3 F18 (USA 210)", "OBJECT_ID": "2009-057A", "EPOCH": "2025-12-13T22:16:42.633408", "MEAN_MOTION": 14.14769855, "ECCENTRICITY": 0.0012043, "INCLINATION": 98.8835, "RA_OF_ASC_NODE": 324.323, "ARG_OF_PERICENTER": 59.6092, "MEAN_ANOMALY": 300.627, "EPHEMERIS_TYPE": 0, "CLASSIFICATION_TYPE": "U", "NORAD_CAT_ID": 35951, "ELEMENT_SET_NO": 999, "REV_AT_EPOCH": 83339, "BSTAR": 0.00019744934, "MEAN_MOTION_DOT": 3.36e-06, "MEAN_MOTION_DDOT": 0}, "tle": {"line1": "1 35951U 09057A   25347.92827122  .00000336  00000+0  19745-3 0  9998", "line2": "2 35951  98.8835 324.3230 0012043  59.6092 300.6270 14.14769855833398"}}, "geometry": {"type": "Point", "coordinates": [-29.220438668927997, -32.36706180138688]}}, {"type": "Feature", "properties": {"norad_id": 36411, "name": "EWS-G2 (GOES 15)", "group": "weather", "lat": -0.5995959833535981, "lon": 36.96586845737705, "alt_km": 35803.69013733178, "timestamp": "2025-12-14T16:47:40.325882+00:00", "meta": {"OBJECT_NAME": "EWS-G2 (GOES 15)", "OBJECT_ID": "2010-008A", "EPOCH": "2025-12-13T22:18:09.691776", "MEAN_MOTION": 1.00270142, "ECCENTRICITY": 0.00056517, "INCLINATION": 0.8171, "RA_OF_ASC_NODE": 86.0696, "ARG_OF_PERICENTER": 175.2179, "MEAN_ANOMALY": 217.506, "EPHEMERIS_TYPE": 0, "CLASSIFICATION_TYPE": "U", "NORAD_CAT_ID": 36411, "ELEMENT_SET_NO": 999, "REV_AT_EPOCH": 5778, "BSTAR": 0, "MEAN_MOTION_DOT": 5.4e-07, "MEAN_MOTION_DDOT": 0}, "tle": {"line1": "1 36411U 10008A   25347.92927884  .00000054  00000+0  00000+0 0  9991", "line2": "2 36411   0.8171  86.0696 0005651 175.2179 217.5060  1.00270142 57783"}}, "geometry": {"type": "Point", "coordinates": [36.96586845737705, -0.5995959833535981]}}, {"type": "Feature", "properties": {"norad_id": 36744, "name": "COMS 1", "group": "weather", "lat": 1.9028582295387246, "lon": 103.62768873921321, "alt_km": 35789.26999278033, "timestamp": "2025-12-14T16:47:40.325895+00:00", "meta": {"OBJECT_NAME": "COMS 1", "OBJECT_ID": "2010-032A", "EPOCH": "2025-12-13T17:28:57.586656", "MEAN_MOTION": 1.00272408, "ECCENTRICITY": 8.53e-05, "INCLINATION": 4.3435, "RA_OF_ASC_NODE": 77.9882, "ARG_OF_PERICENTER": 189.3563, "MEAN_ANOMALY": 205.7195, "EPHEMERIS_TYPE": 0, "CLASSIFICATION_TYPE": "U", "NORAD_CAT_ID": 36744, "ELEMENT_SET_NO": 999, "REV_AT_EPOCH": 4923, "BSTAR": 0, "MEAN_MOTION_DOT": -3.3e-06, "MEAN_MOTION_DDOT": 0}, "tle": {"line1": "1 36744U 10032A   25347.72844429 -.00000330  00000+0  00000+0 0  9996", "line2": "2 36744   4.3435  77.9882 0000853 189.3563 205.7195  1.00272408 49238"}}, "geometry": {"type": "Point", "coordinates": [103.62768873921321, 1.9028582295387246]}}, {"type": "Feature", "properties": {"norad_id": 37214, "name": "FENGYUN 3B", "group": "weather", "lat": -66.42059946590233, "lon": 49.95988918212787, "alt_km": 842.3524582055697, "timestamp": "2025-12-14T16:47:40.325907+00:00", "meta": {"OBJECT_NAME": "FENGYUN 3B", "OBJECT_ID": "2010-059A", "EPOCH": "2025-12-14T00:39:50.185152", "MEAN_MOTION": 14.14790202, "ECCENTRICITY": 0.00220104, "INCLINATION": 98.9912, "RA_OF_ASC_NODE": 28.0138, "ARG_OF_PERICENTER": 354.2585, "MEAN_ANOMALY": 116.5873, "EPHEMERIS_TYPE": 0, "CLASSIFICATION_TYPE": "U", "NORAD_CAT_ID": 37214, "ELEMENT_SET_NO": 999, "REV_AT_EPOCH": 78124, "BSTAR": 5.8046217e-05, "MEAN_MOTION_DOT": 6.7e-07, "MEAN_MOTION_DDOT": 0}, "tle": {"line1": "1 37214U 10059A   25348.02766418  .00000067  00000+0  58046-4 0  9997", "line2": "2 37214  98.9912  28.0138 0022010 354.2585 116.5873 14.14790202781249"}}, "geometry": {"type": "Point", "coordinates": [49.95988918212787, -66.42059946590233]}}, {"type": "Feature", "properties": {"norad_id": 37849, "name": "SUOMI NPP", "group": "weather", "lat": 13.501866957323447, "lon": 108.14957100954925, "alt_km": 826.9389921922902, "timestamp": "2025-12-14T16:47:40.325919+00:00", "meta": {"OBJECT_NAME": "SUOMI NPP", "OBJECT_ID": "2011-061A", "EPOCH": "2025-12-13T23:05:50.997984", "MEAN_MOTION": 14.19514642, "ECCENTRICITY": 0.00022859, "INCLINATION": 98.7774, "RA_OF_ASC_NODE": 285.2929, "ARG_OF_PERICENTER": 118.1001, "MEAN_ANOMALY": 242.0406, "EPHEMERIS_TYPE": 0, "CLASSIFICATION_TYPE": "U", "NORAD_CAT_ID": 37849, "ELEMENT_SET_NO": 999, "REV_AT_EPOCH": 73216, "BSTAR": 8.8342267e-05, "MEAN_MOTION_DOT": 1.42e-06, "MEAN_MOTION_DDOT": 0}, "tle": {"line1": "1 37849U 11061A   25347.96239581  .00000142  00000+0  88342-4 0  9999", "line2": "2 37849  98.7774 285.2929 0002285 118.1001 242.0406 14.19514642732165"}}, "geometry": {"type": "Point", "coordinates": [108.14957100954925, 13.501866957323447]}}]}